STARLINK-1564           
1 46058U 20055AH  26117.08119390  .00000771  00000+0  38138-4 0  9994
2 46058  53.1602 249.5929 0001120  83.1103 277.0025 15.30197686316472
STARLINK-1570           
1 46059U 20055AJ  26117.09524069  .00233492  00000+0  71475-2 0  9996
2 46059  53.1586 248.9037 0001430  78.4736 281.6426 15.32391374316445
STARLINK-1572           
1 46060U 20055AK  26117.06219292 -.00007322  00000+0 -23538-3 0  9995
2 46060  53.1587 249.4294 0001559  80.0382 280.0795 15.30192328316445
STARLINK-1573           
1 46061U 20055AL  26117.08156434  .00003529  00000+0  12540-3 0  9990
2 46061  53.1604 248.9405 0001008  79.7855 280.3261 15.31709625316483
STARLINK-1577           
1 46063U 20055AN  26116.65276320  .00013428  00000+0  44315-3 0  9995
2 46063  53.1584 250.9308 0000904  81.4675 278.6428 15.31739833316413
STARLINK-1583           
1 46064U 20055AP  26117.09165294  .00003799  00000+0  14039-3 0  9992
2 46064  53.1586 249.0401 0001477  90.6213 269.4957 15.30184272316476
STARLINK-1536           
1 46070U 20055AV  26117.05512783 -.00013576  00000+0 -45907-3 0  9998
2 46070  53.1514 236.8959 0000062  49.8538 310.2468 15.29352691316642
STARLINK-1542           
1 46073U 20055AY  26117.33334491  .00106133  00000+0  51787-2 0  9992
2 46073  53.0982 237.9067 0000326 147.6980 173.0469 15.17443211  5755
STARLINK-1549           
1 46074U 20055AZ  26117.06827596  .00043406  00000+0  16514-2 0  9998
2 46074  53.0511 236.3529 0001147 354.1088   5.9896 15.26360267316634
STARLINK-1551           
1 46075U 20055BA  26116.74449183 -.00000319  00000+0  12921-5 0  9993
2 46075  53.1583 237.8381 0001224  73.4119 286.7016 15.29349821316593
STARLINK-1552           
1 46076U 20055BB  26117.02365248  .00006354  00000+0  22637-3 0  9992
2 46076  53.1599 236.4661 0000882  55.7815 304.3269 15.30211586316621
STARLINK-1559           
1 46077U 20055BC  26116.57352797  .00059618  00000+0  17644-2 0  9999
2 46077  53.0243 210.2041 0001383 308.1562  51.9314 15.34348503316923
STARLINK-1566           
1 46079U 20055BE  26117.33334491  .00052727  00000+0  16993-2 0  9997
2 46079  53.1594 235.0195 0001069  96.4002  75.3405 15.31693335  5803
STARLINK-1568           
1 46080U 20055BF  26117.28722218  .00049520  00000+0  85261-3 0  9993
2 46080  53.0588 160.3599 0004323 324.5330  35.5390 15.50606104317727
STARLINK-1578           
1 46082U 20055BH  26116.77527105  .00010157  00000+0  36358-3 0  9993
2 46082  53.1478 238.0436 0001275  89.0167 271.0979 15.29378118316596
STARLINK-1579           
1 46083U 20055BJ  26117.33334491  .00035320  00000+0  11451-2 0  9996
2 46083  53.1592 235.0716 0001069  89.7409 133.3968 15.31684642  5801
STARLINK-1593           
1 46119U 20057C   26117.26146645  .00764358  29374-3  12199-2 0  9991
2 46119  53.0345  24.4843 0004836 191.4676 168.6245 16.03110818315687
STARLINK-1621           
1 46127U 20057L   26117.22504341  .02783252  11847-4  12208-2 0  9991
2 46127  53.0296 355.9572 0009229 251.2563 108.7474 16.21640214314814
STARLINK-1622           
1 46128U 20057M   26117.05146221  .00112713  00000+0  79286-3 0  9992
2 46128  53.0205 345.3680 0000451 349.4856  10.6152 15.73310515314954
STARLINK-1623           
1 46129U 20057N   26117.33334491  .00006884  00000+0  68507-4 0  9998
2 46129  53.0466  19.6586 0001309 111.8244 327.7137 15.67058307  5903
STARLINK-1624           
1 46130U 20057P   26117.33334491  .00295050  00000+0  11132-2 0  9995
2 46130  53.0409 349.5583 0006360 173.0163  76.1688 15.86408527  6008
STARLINK-1596           
1 46141U 20057AA  26117.08198341  .00079038  00000+0  12614-2 0  9993
2 46141  53.0384 358.9718 0001730 165.0469 195.0592 15.52537047314776
STARLINK-1597           
1 46142U 20057AB  26117.09644627  .00090838  00000+0  84885-3 0  9999
2 46142  53.0451  60.4786 0004253  34.6337 325.4954 15.66548511313908
STARLINK-1606           
1 46144U 20057AD  26117.13950224  .00172672  00000+0  11005-2 0  9999
2 46144  53.0431  16.9393 0004559 134.8288 225.3102 15.75378188302772
STARLINK-1608           
1 46146U 20057AF  26117.28683280  .00074963  00000+0  23611-2 0  9992
2 46146  53.1609  83.3921 0001645  76.3355 283.7830 15.32267005313625
STARLINK-1667           
1 46155U 20057AQ  26117.33334491  .00097217  00000+0  63247-3 0  9992
2 46155  53.0191 344.2164 0001264 276.3381 113.7973 15.75185327  5997
STARLINK-1545           
1 46156U 20057AR  26117.33334491  .00039321  00000+0  29856-3 0  9993
2 46156  53.0416  18.9510 0006002 129.7127 221.2572 15.71935672  5983
STARLINK-1595           
1 46159U 20057AU  26117.13303210  .00078261  00000+0  95983-3 0  9999
2 46159  53.0449  62.3749 0002560  56.0912 304.0344 15.59664477315145
STARLINK-1598           
1 46160U 20057AV  26117.18390234  .00098807  00000+0  96917-3 0  9994
2 46160  53.0477  48.4171 0007434  67.2825 292.8975 15.65280008315330
STARLINK-1626           
1 46167U 20057BC  26117.24266387  .00100618  00000+0  98280-3 0  9998
2 46167  53.0443  57.6662 0003318  57.0804 303.0529 15.65402412313960
STARLINK-1627           
1 46168U 20057BD  26117.33334491  .00314056  47891-4  97688-3 0  9999
2 46168  53.0346 340.5203 0006598 215.2369 156.8117 15.91090810  6022
STARLINK-1633           
1 46171U 20057BG  26117.11168291  .00121555  00000+0  97154-3 0  9996
2 46171  53.0391  21.4674 0008316 115.3545 244.8333 15.70207553315717
STARLINK-1635           
1 46172U 20057BH  26117.01520510  .00114303  00000+0  89048-3 0  9998
2 46172  53.0417  19.9963 0007602 139.2261 220.9326 15.70857111315726
STARLINK-1640           
1 46173U 20057BJ  26117.29816087  .00118290  00000+0  11967-2 0  9999
2 46173  53.0453  62.6021 0003427  35.1550 324.9690 15.64442171313897
STARLINK-1641           
1 46174U 20057BK  26117.19202185  .00075833  00000+0  11224-2 0  9998
2 46174  53.0485  51.3791 0005140  94.4675 265.6922 15.54621966314049
STARLINK-1654           
1 46326U 20062B   26117.33334491  .00240143  00000+0  11470-2 0  9996
2 46326  53.0378  91.3216 0008863  87.8170 302.8882 15.81562099  5896
STARLINK-1686           
1 46328U 20062D   26117.33334491  .00340802  00000+0  12461-2 0  9992
2 46328  53.0347  71.0917 0010250  94.8242 262.0669 15.86894681  5809
STARLINK-1695           
1 46329U 20062E   26117.23107436  .00096247  00000+0  95528-3 0  9996
2 46329  53.0432 100.1921 0006050  32.9210 327.2180 15.65005441312443
STARLINK-1719           
1 46331U 20062G   26117.19718745  .00113673  00000+0  10003-2 0  9992
2 46331  53.0383 101.2852 0010826  66.0516 294.1633 15.67871550312437
STARLINK-1727           
1 46335U 20062L   26117.33334491  .00370644  00000+0  14317-2 0  9999
2 46335  53.0351  93.3572 0010075  81.9447 325.0104 15.85697540  5959
STARLINK-1759           
1 46340U 20062R   26117.08618282  .00150740  00000+0  11603-2 0  9998
2 46340  53.0167  92.9654 0005724  71.7029 288.4610 15.71024831312524
STARLINK-1762           
1 46342U 20062T   26117.28042436  .00044474  00000+0  13349-2 0  9999
2 46342  53.1565 144.7228 0004531  42.8411 317.2944 15.34029130311842
STARLINK-1764           
1 46343U 20062U   26117.33334491  .00223946  00000+0  11643-2 0  9999
2 46343  53.0363  75.5100 0007661  91.6570 295.0472 15.79772154  5785
STARLINK-1547           
1 46347U 20062Y   26117.17748789  .00158135  00000+0  10553-2 0  9990
2 46347  53.0349  39.2964 0002701  82.6182 277.5143 15.74370723313285
STARLINK-1553           
1 46348U 20062Z   26117.17710724  .00036273  00000+0  92836-3 0  9992
2 46348  53.0365  78.4046 0002997   2.8518 357.2502 15.39087982312753
STARLINK-1646           
1 46351U 20062AC  26117.19713238  .00113546  00000+0  97110-3 0  9990
2 46351  53.0416  98.4199 0001689 104.5480 255.5724 15.68638056312482
STARLINK-1653           
1 46352U 20062AD  26117.26746500  .00107864  00000+0  91682-3 0  9991
2 46352  53.0398  84.1706 0012460  63.3599 296.8691 15.68718105312687
STARLINK-1656           
1 46353U 20062AE  26117.25684085  .00100404  00000+0  11348-2 0  9993
2 46353  53.0439 124.0236 0008697  28.3162 331.8322 15.61648426312110
STARLINK-1661           
1 46355U 20062AG  26117.26915518  .00053640  00000+0  15963-2 0  9990
2 46355  53.1572 144.7348 0005236  33.2800 326.8531 15.34213585311843
STARLINK-1665           
1 46356U 20062AH  26117.33334491  .00156128  00000+0  10323-2 0  9994
2 46356  53.0376  96.5723 0009376  71.0233 118.9485 15.74542810  5821
STARLINK-1666           
1 46357U 20062AJ  26117.25132178  .00161116  00000+0  13173-2 0  9993
2 46357  53.0410  96.4004 0005533  36.6568 323.4826 15.69540516312504
STARLINK-1707           
1 46359U 20062AL  26117.03521147  .00121355  00000+0  81289-3 0  9994
2 46359  53.0232  35.4569 0002288  90.6109 269.5172 15.74414664313338
STARLINK-1724           
1 46375U 20062BC  26117.33334491  .00163506  00000+0  16813-2 0  9993
2 46375  53.0245  50.7111 0007317 101.5249  99.2483 15.63834213  5951
STARLINK-1770           
1 46383U 20062BL  26117.12205737  .00088169  00000+0  69225-3 0  9996
2 46383  53.0396  77.0332 0006995  70.9213 289.2560 15.70787848312761
STARLINK-1771           
1 46384U 20062BM  26117.27486616  .00088591  00000+0  13775-2 0  9997
2 46384  53.0380 112.7919 0009562  55.8637 304.3278 15.53162381312279
STARLINK-1663           
1 46535U 20070D   26117.33334491  .00140084  00000+0  89832-3 0  9998
2 46535  53.0370 254.7274 0004939 317.3381 357.4989 15.75341688  5980
STARLINK-1672           
1 46537U 20070F   26117.12647260  .00060233  00000+0  81726-3 0  9999
2 46537  53.0466 264.7151 0003071 246.2336 113.8353 15.57087357307578
STARLINK-1678           
1 46538U 20070G   26117.33334491  .00031488  00000+0  22444-3 0  9994
2 46538  53.0392 231.6701 0005410 334.8941 187.9064 15.73543431  5828
STARLINK-1664           
1 46553U 20070X   26116.82330719  .00066037  00000+0  13781-2 0  9994
2 46553  53.0468 264.6896 0001988 300.4470  59.6339 15.44946685307542
